IRIDIUM 150             
1 43257U 18030J   25049.93138270  .00000025  00000+0  19577-5 0  9996
2 43257  86.4000 132.5170 0002278  91.3358 268.8098 14.34217264360899
IRIDIUM 143             
1 43258U 18030K   25049.70304198  .00000085  00000+0  23469-4 0  9996
2 43258  86.4004 132.6860 0002449  86.7562 273.3914 14.34214430360795
IRIDIUM 161             
1 43478U 18047C   25049.93305050  .00000692  00000+0  19974-3 0  9990
2 43478  86.4468 290.4103 0002103  87.3651 272.7791 14.43282692355435
IRIDIUM 152             
1 43479U 18047D   25049.95484062  .00000025  00000+0  20352-5 0  9998
2 43479  86.3943 290.2608 0002061  88.0114 272.1318 14.34217754353227
IRIDIUM 147             
1 43480U 18047E   25050.17048534  .00000014  00000+0 -20965-5 0  9995
2 43480  86.3946 290.1672 0001783  88.9351 271.2049 14.34216015353257
IRIDIUM 110             
1 43481U 18047F   25049.89775766  .00000142  00000+0  43720-4 0  9991
2 43481  86.3948 290.3606 0001996  98.4110 261.7312 14.34217615353203
IRIDIUM 162             
1 43482U 18047G   25050.13478666  .00000697  00000+0  20107-3 0  9998
2 43482  86.4467 290.2226 0002203  91.9276 268.2177 14.43285088355450
IRIDIUM 160             
1 43569U 18061A   25049.63428738  .00000065  00000+0  16273-4 0  9997
2 43569  86.3918 258.8193 0001931  94.1641 265.9776 14.34217678344061
